$$SOE
2460721.500000000, A.D. 2025-Feb-15 00:00:00.0000, -6.589162961110971E+08, 4.204781930636107E+08, -6.121470887771672E+07,
2460728.500000000, A.D. 2025-Feb-22 00:00:00.0000, -6.635140259408306E+08, 4.142008818661066E+08, -6.016136766735952E+07,
2460735.500000000, A.D. 2025-Mar-01 00:00:00.0000, -6.680449857747549E+08, 4.078818610646876E+08, -5.910197262127481E+07,
2460742.500000000, A.D. 2025-Mar-08 00:00:00.0000, -6.725088333734283E+08, 4.015218379724200E+08, -5.803664094929193E+07,
2460749.500000000, A.D. 2025-Mar-15 00:00:00.0000, -6.769052332945513E+08, 3.951215232555431E+08, -5.696549004408830E+07,
2460756.500000000, A.D. 2025-Mar-22 00:00:00.0000, -6.812338591027164E+08, 3.886816312715191E+08, -5.588863722378264E+07,
2460763.500000000, A.D. 2025-Mar-29 00:00:00.0000, -6.854943942088012E+08, 3.822028781531498E+08, -5.480619978342503E+07,
2460770.500000000, A.D. 2025-Apr-05 00:00:00.0000, -6.896865310137659E+08, 3.756859807770172E+08, -5.371829512899719E+07,
2460777.500000000, A.D. 2025-Apr-12 00:00:00.0000, -6.938099702831192E+08, 3.691316567204301E+08, -5.262504080912378E+07,
2460784.500000000, A.D. 2025-Apr-19 00:00:00.0000, -6.978644209394977E+08, 3.625406243260114E+08, -5.152655449969681E+07,
2460791.500000000, A.D. 2025-Apr-26 00:00:00.0000, -7.018496000017661E+08, 3.559136026714281E+08, -5.042295398320381E+07,
2460798.500000000, A.D. 2025-May-03 00:00:00.0000, -7.057652325569201E+08, 3.492513114639106E+08, -4.931435713183735E+07,
2460805.500000000, A.D. 2025-May-10 00:00:00.0000, -7.096110517361492E+08, 3.425544708686199E+08, -4.820088189646612E+07,
2460812.500000000, A.D. 2025-May-17 00:00:00.0000, -7.133867986582705E+08, 3.358238012301494E+08, -4.708264630830868E+07,
2460819.500000000, A.D. 2025-May-24 00:00:00.0000, -7.170922221665608E+08, 3.290600226329584E+08, -4.595976851378809E+07,
2460826.500000000, A.D. 2025-May-31 00:00:00.0000, -7.207270779411478E+08, 3.222638546119107E+08, -4.483236685550737E+07,
2460833.500000000, A.D. 2025-Jun-07 00:00:00.0000, -7.242911273878886E+08, 3.154360172178443E+08, -4.370055986412519E+07,
2460840.500000000, A.D. 2025-Jun-14 00:00:00.0000, -7.277841386684524E+08, 3.085772327714867E+08, -4.256446599876815E+07,
2460847.500000000, A.D. 2025-Jun-21 00:00:00.0000, -7.312058886549430E+08, 3.016882250347006E+08, -4.142420351492594E+07,
2460854.500000000, A.D. 2025-Jun-28 00:00:00.0000, -7.345561626806363E+08, 2.947697175639358E+08, -4.027989060245617E+07,
2460861.500000000, A.D. 2025-Jul-05 00:00:00.0000, -7.378347536034335E+08, 2.878224334023120E+08, -3.913164547827487E+07,
2460868.500000000, A.D. 2025-Jul-12 00:00:00.0000, -7.410414613731853E+08, 2.808470953050714E+08, -3.797958639027488E+07,
2460875.500000000, A.D. 2025-Jul-19 00:00:00.0000, -7.441760929134426E+08, 2.738444259235330E+08, -3.682383159680676E+07,
2460882.500000000, A.D. 2025-Jul-26 00:00:00.0000, -7.472384621077210E+08, 2.668151478911684E+08, -3.566449934551533E+07,
2460889.500000000, A.D. 2025-Aug-02 00:00:00.0000, -7.502283898248926E+08, 2.597599838336158E+08, -3.450170785564613E+07,
2460896.500000000, A.D. 2025-Aug-09 00:00:00.0000, -7.531457039602916E+08, 2.526796562882123E+08, -3.333557530701886E+07,
2460903.500000000, A.D. 2025-Aug-16 00:00:00.0000, -7.559902394156055E+08, 2.455748874700752E+08, -3.216621984771547E+07,
2460910.500000000, A.D. 2025-Aug-23 00:00:00.0000, -7.587618377249280E+08, 2.384463989014778E+08, -3.099375964576187E+07,
2460917.500000000, A.D. 2025-Aug-30 00:00:00.0000, -7.614603459980332E+08, 2.312949116187525E+08, -2.981831295638561E+07,
2460924.500000000, A.D. 2025-Sep-06 00:00:00.0000, -7.640856165990753E+08, 2.241211479571081E+08, -2.863999799278898E+07,
2460931.500000000, A.D. 2025-Sep-13 00:00:00.0000, -7.666375092317269E+08, 2.169258324306712E+08, -2.745893264988324E+07,
2460938.500000000, A.D. 2025-Sep-20 00:00:00.0000, -7.691158921575999E+08, 2.097096900636718E+08, -2.627523451534763E+07,
2460945.500000000, A.D. 2025-Sep-27 00:00:00.0000, -7.715206414892033E+08, 2.024734452845290E+08, -2.508902101056176E+07,
2460952.500000000, A.D. 2025-Oct-04 00:00:00.0000, -7.738516405740818E+08, 1.952178219221181E+08, -2.390040943219275E+07,
2460959.500000000, A.D. 2025-Oct-11 00:00:00.0000, -7.761087798439156E+08, 1.879435433614181E+08, -2.270951693713881E+07,
2460966.500000000, A.D. 2025-Oct-18 00:00:00.0000, -7.782919568449329E+08, 1.806513325844760E+08, -2.151646051923550E+07,
2460973.500000000, A.D. 2025-Oct-25 00:00:00.0000, -7.804010763100014E+08, 1.733419121080679E+08, -2.032135698964097E+07,
2460980.500000000, A.D. 2025-Nov-01 00:00:00.0000, -7.824360502328640E+08, 1.660160038339174E+08, -1.912432296333316E+07,
2460987.500000000, A.D. 2025-Nov-08 00:00:00.0000, -7.843967979098873E+08, 1.586743287804024E+08, -1.792547485759927E+07,
2460994.500000000, A.D. 2025-Nov-15 00:00:00.0000, -7.862832458015487E+08, 1.513176066375455E+08, -1.672492892105178E+07,
2461001.500000000, A.D. 2025-Nov-22 00:00:00.0000, -7.880953268109981E+08, 1.439465553657637E+08, -1.552280131234283E+07,
2461008.500000000, A.D. 2025-Nov-29 00:00:00.0000, -7.898329791331178E+08, 1.365618919736977E+08, -1.431920812199051E+07,
2461015.500000000, A.D. 2025-Dec-06 00:00:00.0000, -7.914961469517454E+08, 1.291643343394524E+08, -1.311426513977141E+07,
2461022.500000000, A.D. 2025-Dec-13 00:00:00.0000, -7.930847825517707E+08, 1.217546007053933E+08, -1.190808768307684E+07,
2461029.500000000, A.D. 2025-Dec-20 00:00:00.0000, -7.945988463529565E+08, 1.143334078702330E+08, -1.070079072311825E+07,
2461036.500000000, A.D. 2025-Dec-27 00:00:00.0000, -7.960383059390761E+08, 1.069014706701494E+08, -9.492488998763356E+06,
2461043.500000000, A.D. 2026-Jan-03 00:00:00.0000, -7.974031355415640E+08, 9.945950213381685E+07, -8.283297034487609E+06,
2461050.500000000, A.D. 2026-Jan-10 00:00:00.0000, -7.986933158680184E+08, 9.200821363311721E+07, -7.073329127966888E+06,
2461057.500000000, A.D. 2026-Jan-17 00:00:00.0000, -7.999088340430380E+08, 8.454831493880877E+07, -5.862699336057704E+06,
2461064.500000000, A.D. 2026-Jan-24 00:00:00.0000, -8.010496835834372E+08, 7.708051420472936E+07, -4.651521464358978E+06,
2461071.500000000, A.D. 2026-Jan-31 00:00:00.0000, -8.021158643843671E+08, 6.960551787405382E+07, -3.439909063001141E+06,
2461078.500000000, A.D. 2026-Feb-07 00:00:00.0000, -8.031073826548021E+08, 6.212403045118339E+07, -2.227975438870907E+06,
2461085.500000000, A.D. 2026-Feb-14 00:00:00.0000, -8.040242505493059E+08, 5.463675412486149E+07, -1.015833708619464E+06,
2461092.500000000, A.D. 2026-Feb-21 00:00:00.0000, -8.048664851084472E+08, 4.714438882032865E+07, 1.964031192680039E+05,
2461099.500000000, A.D. 2026-Feb-28 00:00:00.0000, -8.056341075926453E+08, 3.964763383454830E+07, 1.408622227198200E+06,
2461106.500000000, A.D. 2026-Mar-07 00:00:00.0000, -8.063271452680799E+08, 3.214718910480018E+07, 2.620711265508581E+06,
2461113.500000000, A.D. 2026-Mar-14 00:00:00.0000, -8.069456328691304E+08, 2.464375377814447E+07, 3.832558378676304E+06,
2461120.500000000, A.D. 2026-Mar-21 00:00:00.0000, -8.074896119542984E+08, 1.713802497992173E+07, 5.044052054127164E+06,
2461127.500000000, A.D. 2026-Mar-28 00:00:00.0000, -8.079591301647909E+08, 9.630697809885141E+06, 6.255081062141152E+06,
2461134.500000000, A.D. 2026-Apr-04 00:00:00.0000, -8.083542409895082E+08, 2.122465600166786E+06, 7.465534463454449E+06,
2461141.500000000, A.D. 2026-Apr-11 00:00:00.0000, -8.086750037626235E+08, -5.385979924952950E+06, 8.675301630193030E+06,
2461148.500000000, A.D. 2026-Apr-18 00:00:00.0000, -8.089214837344502E+08, -1.289394859420082E+07, 9.884272265179517E+06,
2461155.500000000, A.D. 2026-Apr-25 00:00:00.0000, -8.090937521696018E+08, -2.040075182471156E+07, 1.109233641681745E+07,
2461162.500000000, A.D. 2026-May-02 00:00:00.0000, -8.091918864414806E+08, -2.790570277731095E+07, 1.229938448451151E+07,
2461169.500000000, A.D. 2026-May-09 00:00:00.0000, -8.092159699981852E+08, -3.540811669789762E+07, 1.350530719795392E+07,
2461176.500000000, A.D. 2026-May-16 00:00:00.0000, -8.091660918215606E+08, -4.290731130653732E+07, 1.470999554704919E+07,
2461183.500000000, A.D. 2026-May-23 00:00:00.0000, -8.090423453272630E+08, -5.040260621183385E+07, 1.591334074135270E+07,
2461190.500000000, A.D. 2026-May-30 00:00:00.0000, -8.088448287840867E+08, -5.789332103100882E+07, 1.711523441577469E+07,
2461197.500000000, A.D. 2026-Jun-06 00:00:00.0000, -8.085736475699066E+08, -6.537877548922820E+07, 1.831556884405354E+07,
2461204.500000000, A.D. 2026-Jun-13 00:00:00.0000, -8.082289145982959E+08, -7.285829129903510E+07, 1.951423683990361E+07,
2461211.500000000, A.D. 2026-Jun-20 00:00:00.0000, -8.078107494165361E+08, -8.033119289359687E+07, 2.071113163073913E+07,
2461218.500000000, A.D. 2026-Jun-27 00:00:00.0000, -8.073192776731002E+08, -8.779680735369067E+07, 2.190614683172023E+07,
2461225.500000000, A.D. 2026-Jul-04 00:00:00.0000, -8.067546309546715E+08, -9.525446430344573E+07, 2.309917645651584E+07,
2461232.500000000, A.D. 2026-Jul-11 00:00:00.0000, -8.061169467388361E+08, -1.027034959068242E+08, 2.429011493043080E+07,
2461239.500000000, A.D. 2026-Jul-18 00:00:00.0000, -8.054063683698586E+08, -1.101432369391260E+08, 2.547885709922973E+07,
2461246.500000000, A.D. 2026-Jul-25 00:00:00.0000, -8.046230450332323E+08, -1.175730249307700E+08, 2.666529823141017E+07,
2461253.500000000, A.D. 2026-Aug-01 00:00:00.0000, -8.037671316810529E+08, -1.249922004313964E+08, 2.784933400539212E+07,
2461260.500000000, A.D. 2026-Aug-08 00:00:00.0000, -8.028387886934489E+08, -1.324001074300411E+08, 2.903086045884494E+07,
2461267.500000000, A.D. 2026-Aug-15 00:00:00.0000, -8.018381808611085E+08, -1.397960934808136E+08, 3.020977389880042E+07,
2461274.500000000, A.D. 2026-Aug-22 00:00:00.0000, -8.007654764499665E+08, -1.471795083126109E+08, 3.138597094210719E+07,
2461281.500000000, A.D. 2026-Aug-29 00:00:00.0000, -7.996208486372459E+08, -1.545497022955070E+08, 3.255934878395942E+07,
$$EOE